ONEWEB-0371             
1 49297U 21090U   24230.10667782  .00000016  00000+0  87558-5 0  9995
2 49297  87.9100  78.0745 0001612  86.9163 273.2154 13.19727060139498
ONEWEB-0372             
1 49298U 21090V   24230.00160058  .00000083  00000+0  17136-3 0  9996
2 49298  87.9188  47.5622 0001627  89.8753 270.2566 13.20772988142807
ONEWEB-0373             
1 49299U 21090W   24230.02858175  .00000073  00000+0  14777-3 0  9990
2 49299  87.9184  47.5723 0001811  79.3729 280.7608 13.20772352143997
ONEWEB-0374             
1 49300U 21090X   24230.04340199 -.00000012  00000+0 -66720-4 0  9998
2 49300  87.8919  62.7955 0001695  82.7112 277.4210 13.14503762140949
ONEWEB-0375             
1 49301U 21090Y   24230.01595325  .00000075  00000+0  15197-3 0  9997
2 49301  87.9189  47.5511 0002394  80.7064 279.4340 13.20771139143480
ONEWEB-0376             
1 49302U 21090Z   24229.11946964  .00000048  00000+0  86437-4 0  9992
2 49302  87.9094  78.2763 0001465  81.6656 278.4643 13.19725308138070
ONEWEB-0377             
1 49303U 21090AA  24230.00188744  .00000046  00000+0  81892-4 0  9995
2 49303  87.9187  47.5458 0001931  95.5475 264.5879 13.20771848143463
ONEWEB-0378             
1 49304U 21090AB  24230.02397827  .00000077  00000+0  15715-3 0  9996
2 49304  87.9188  47.5450 0001864  86.1358 273.9989 13.20773505142779
